EPOCH,NORAD_CAT_ID,MEAN_MOTION,ECCENTRICITY,INCLINATION,RA_OF_ASC_NODE,ARG_OF_PERICENTER,MEAN_ANOMALY,MEAN_MOTION_DOT,BSTAR,TLE_LINE1,TLE_LINE2
2022-10-13 14:14:55,50803,15.08831055,0.0002024,53.2216,349.5935,45.2567,314.859,-0.00000365,-0.0000048408,1 50803U 22001A   22286.59369481 -.00000365  00000-0 -48408-5 0  9991,2 50803  53.2216 349.5935 0002024  45.2567 314.8590 15.08831055 44017
2022-10-13 14:14:55,50803,15.08831055,0.0002024,53.2216,349.5935,45.2567,314.859,-0.00000365,-0.0000048408,1 50803U 22001A   22286.59369481 -.00000365  00000-0 -48408-5 0  9991,2 50803  53.2216 349.5935 0002024  45.2567 314.8590 15.08831055 42745
2022-10-14 10:54:56,50803,15.08803885,0.0002339,53.2189,345.7285,39.9817,320.1347,0.00008237,0.00053556,1 50803U 22001A   22287.45481875  .00008237  00000-0  53556-3 0  9991,2 50803  53.2189 345.7285 0002339  39.9817 320.1347 15.08803885 42871
2022-10-14 20:27:14,50803,15.08840168,0.0002349,53.2209,343.9445,35.8305,324.2844,0.00000677,0.000060621,1 50803U 22001A   22287.85225283  .00000677  00000-0  60621-4 0  9996,2 50803  53.2209 343.9445 0002349  35.8305 324.2844 15.08840168 42939
2022-10-14 20:27:14,50803,15.08840168,0.0002349,53.2209,343.9445,35.8305,324.2844,0.00000677,0.000060621,1 50803U 22001A   22287.85225283  .00000677  00000-0  60621-4 0  9996,2 50803  53.2209 343.9445 0002349  35.8305 324.2844 15.08840168 44201
2022-10-15 12:21:06,50803,15.08836192,0.0002455,53.2192,340.9725,32.9333,327.1812,0.0000063,0.000057734,1 50803U 22001A   22288.51465715  .00000630  00000-0  57734-4 0  9996,2 50803  53.2192 340.9725 0002455  32.9333 327.1812 15.08836192 43036
2022-10-15 20:18:02,50803,15.08836312,0.0002484,53.2189,339.4853,33.0259,327.0888,0.00000073,0.000022702,1 50803U 22001A   22288.84585813  .00000073  00000-0  22702-4 0  9992,2 50803  53.2189 339.4853 0002484  33.0259 327.0888 15.08836312 44350
2022-10-16 12:11:53,50803,15.08833277,0.0002545,53.2194,336.5124,32.3236,327.7912,-0.00000447,-0.0000099895,1 50803U 22001A   22289.50826257 -.00000447  00000-0 -99895-5 0  9991,2 50803  53.2194 336.5124 0002545  32.3236 327.7912 15.08833277 43182
2022-10-16 20:08:50,50803,15.08825837,0.0002541,53.2194,335.0245,35.1836,324.9323,-0.00000736,-0.000028128,1 50803U 22001A   22289.83946931 -.00000736  00000-0 -28128-4 0  9990,2 50803  53.2194 335.0245 0002541  35.1836 324.9323 15.08825837 43237
2022-10-16 20:08:50,50803,15.08825837,0.0002541,53.2194,335.0245,35.1836,324.9323,-0.00000736,-0.000028128,1 50803U 22001A   22289.83946931 -.00000736  00000-0 -28128-4 0  9990,2 50803  53.2194 335.0245 0002541  35.1836 324.9323 15.08825837 44508
2022-10-17 10:27:17,50803,15.08857576,0.0002382,53.2185,332.3479,28.5851,331.5271,-0.00003027,-0.00017202,1 50803U 22001A   22290.43561367 -.00003027  00000-0 -17202-3 0  9990,2 50803  53.2185 332.3479 0002382  28.5851 331.5271 15.08857576 44593
2022-10-17 12:02:40,50803,15.08842972,0.0002454,53.2184,332.0505,35.0062,325.1091,0.00000554,0.000052924,1 50803U 22001A   22290.50185635  .00000554  00000-0  52924-4 0  9999,2 50803  53.2184 332.0505 0002454  35.0062 325.1091 15.08842972 43330
2022-10-17 12:02:40,50803,15.08842972,0.0002454,53.2184,332.0505,35.0062,325.1091,0.00000554,0.000052924,1 50803U 22001A   22290.50185635  .00000554  00000-0  52924-4 0  9999,2 50803  53.2184 332.0505 0002454  35.0062 325.1091 15.08842972 44601
2022-10-17 19:59:35,50803,15.08846493,0.0002598,53.2186,330.5636,31.676,328.4388,0.00001081,0.000085988,1 50803U 22001A   22290.83305273  .00001081  00000-0  85988-4 0  9999,2 50803  53.2186 330.5636 0002598  31.6760 328.4388 15.08846493 43388
2022-10-18 11:53:28,50803,15.08823031,0.0002012,53.2187,327.5889,27.1975,332.9122,0.000006,0.000055844,1 50803U 22001A   22291.49546851  .00000600  00000-0  55844-4 0  9995,2 50803  53.2187 327.5889 0002012  27.1975 332.9122 15.08823031 43484
2022-10-18 11:53:28,50803,15.08823031,0.0002012,53.2187,327.5889,27.1975,332.9122,0.000006,0.000055844,1 50803U 22001A   22291.49546851  .00000600  00000-0  55844-4 0  9995,2 50803  53.2187 327.5889 0002012  27.1975 332.9122 15.08823031 44755
2022-10-18 19:50:23,50803,15.08829616,0.0002041,53.2189,326.103,28.1188,331.9914,0.00001283,0.000098697,1 50803U 22001A   22291.82666558  .00001283  00000-0  98697-4 0  9990,2 50803  53.2189 326.1030 0002041  28.1188 331.9914 15.08829616 44808
2022-10-18 19:50:23,50803,15.08829616,0.0002041,53.2189,326.103,28.1188,331.9914,0.00001283,0.000098697,1 50803U 22001A   22291.82666558  .00001283  00000-0  98697-4 0  9990,2 50803  53.2189 326.1030 0002041  28.1188 331.9914 15.08829616 43537
2022-10-19 08:33:28,50803,15.08841824,0.0002436,53.2186,323.7245,30.5724,329.541,0.00001497,0.00011217,1 50803U 22001A   22292.35657940  .00001497  00000-0  11217-3 0  9993,2 50803  53.2186 323.7245 0002436  30.5724 329.5410 15.08841824 44884
2022-10-19 11:44:14,50803,15.088463,0.0002405,53.2187,323.1295,29.8958,330.2171,0.00000119,0.000025622,1 50803U 22001A   22292.48905877  .00000119  00000-0  25622-4 0  9998,2 50803  53.2187 323.1295 0002405  29.8958 330.2171 15.08846300 43639
2022-10-20 05:13:29,50803,15.08836316,0.0002457,53.2187,319.859,30.6219,329.4917,0.00000201,0.000030735,1 50803U 22001A   22293.21770386  .00000201  00000-0  30735-4 0  9998,2 50803  53.2187 319.8590 0002457  30.6219 329.4917 15.08836316 45014
2022-10-20 08:24:15,50803,15.08842921,0.0002455,53.2185,319.2641,31.1111,329.0026,0.00001066,0.000085048,1 50803U 22001A   22293.35017822  .00001066  00000-0  85048-4 0  9999,2 50803  53.2185 319.2641 0002455  31.1111 329.0026 15.08842921 45036
2022-10-20 11:35:01,50803,15.08838507,0.0002477,53.2185,318.6694,32.4219,327.6925,0.00001954,0.00014087,1 50803U 22001A   22293.48265924  .00001954  00000-0  14087-3 0  9991,2 50803  53.2185 318.6694 0002477  32.4219 327.6925 15.08838507 43781
2022-10-21 01:53:30,50803,15.08837922,0.0002531,53.2193,315.9946,32.9466,327.1683,-0.00000058,0.000014449,1 50803U 22001A   22294.07882466 -.00000058  00000-0  14449-4 0  9991,2 50803  53.2193 315.9946 0002531  32.9466 327.1683 15.08837922 45148
2022-10-21 08:15:02,50803,15.08844732,0.0002525,53.2179,314.8035,32.4983,327.6164,0.00000645,0.000058624,1 50803U 22001A   22294.34377883  .00000645  00000-0  58624-4 0  9997,2 50803  53.2179 314.8035 0002525  32.4983 327.6164 15.08844732 45181
2022-10-21 11:25:49,50803,15.08839871,0.0002514,53.2182,314.2092,31.0976,329.0165,-0.0000057,-0.000017699,1 50803U 22001A   22294.47626402 -.00000570  00000-0 -17699-4 0  9991,2 50803  53.2182 314.2092 0002514  31.0976 329.0165 15.08839871 43933
2022-10-21 11:25:49,50803,15.08839871,0.0002514,53.2182,314.2092,31.0976,329.0165,-0.0000057,-0.000017699,1 50803U 22001A   22294.47626402 -.00000570  00000-0 -17699-4 0  9991,2 50803  53.2182 314.2092 0002514  31.0976 329.0165 15.08839871 45205
2022-10-22 11:16:36,50803,15.08837485,0.000265,53.218,309.7481,31.25,328.865,-0.00000864,-0.000036188,1 50803U 22001A   22295.46986761 -.00000864  00000-0 -36188-4 0  9998,2 50803  53.2180 309.7481 0002650  31.2500 328.8650 15.08837485 44080
2022-10-22 17:38:09,50803,15.08837708,0.0002659,53.2187,308.5584,32.6354,327.4802,-0.00000957,-0.000042009,1 50803U 22001A   22295.73482811 -.00000957  00000-0 -42009-4 0  9997,2 50803  53.2187 308.5584 0002659  32.6354 327.4802 15.08837708 45396
2022-10-22 17:38:09,50803,15.08837708,0.0002659,53.2187,308.5584,32.6354,327.4802,-0.00000957,-0.000042009,1 50803U 22001A   22295.73482811 -.00000957  00000-0 -42009-4 0  9997,2 50803  53.2187 308.5584 0002659  32.6354 327.4802 15.08837708 44126
2022-10-23 07:56:36,50803,15.08848521,0.0002732,53.2179,305.8831,32.8046,327.3116,0.0000092,0.000075887,1 50803U 22001A   22296.33097870  .00000920  00000-0  75887-4 0  9999,2 50803  53.2179 305.8831 0002732  32.8046 327.3116 15.08848521 45486
2022-10-23 09:31:59,50803,15.08849884,0.0002694,53.2184,305.5858,33.8744,326.242,0.00001141,0.000089793,1 50803U 22001A   22296.39721712  .00001141  00000-0  89793-4 0  9991,2 50803  53.2184 305.5858 0002694  33.8744 326.2420 15.08849884 44221
2022-10-23 17:28:55,50803,15.08843032,0.0002801,53.2171,304.0983,32.3425,327.7739,0.00000061,0.000021956,1 50803U 22001A   22296.72842300  .00000061  00000-0  21956-4 0  9992,2 50803  53.2171 304.0983 0002801  32.3425 327.7739 15.08843032 45544
2022-10-23 17:28:55,50803,15.08843032,0.0002801,53.2171,304.0983,32.3425,327.7739,0.00000061,0.000021956,1 50803U 22001A   22296.72842300  .00000061  00000-0  21956-4 0  9992,2 50803  53.2171 304.0983 0002801  32.3425 327.7739 15.08843032 44273
2022-10-24 09:22:47,50803,15.08839974,0.0002757,53.2188,301.1258,34.6766,325.4405,0.00000094,0.000024009,1 50803U 22001A   22297.39082477  .00000094  00000-0  24009-4 0  9995,2 50803  53.2188 301.1258 0002757  34.6766 325.4405 15.08839974 44373
2022-10-24 17:19:43,50803,15.08833209,0.0002931,53.2186,299.6386,34.8034,325.315,0.00000535,0.000051776,1 50803U 22001A   22297.72202923  .00000535  00000-0  51776-4 0  9993,2 50803  53.2186 299.6386 0002931  34.8034 325.3150 15.08833209 45695
2022-10-25 02:52:01,50803,15.08843521,0.0002759,53.218,297.8549,34.8425,325.2747,0.00000165,0.000028467,1 50803U 22001A   22298.11946277  .00000165  00000-0  28467-4 0  9994,2 50803  53.2180 297.8549 0002759  34.8425 325.2747 15.08843521 45758
2022-10-25 09:13:33,50803,15.08846967,0.0002792,53.2179,296.665,33.9032,326.2138,-0.00000261,0.0000017248,1 50803U 22001A   22298.38442073 -.00000261  00000-0  17248-5 0  9992,2 50803  53.2179 296.6650 0002792  33.9032 326.2138 15.08846967 44523
2022-10-25 17:10:30,50803,15.08838261,0.0002843,53.2181,295.1791,36.4857,323.6329,-0.00001509,-0.000076713,1 50803U 22001A   22298.71562852 -.00001509  00000-0 -76713-4 0  9995,2 50803  53.2181 295.1791 0002843  36.4857 323.6329 15.08838261 44572
2022-10-25 17:10:30,50803,15.08838261,0.0002843,53.2181,295.1791,36.4857,323.6329,-0.00001509,-0.000076713,1 50803U 22001A   22298.71562852 -.00001509  00000-0 -76713-4 0  9995,2 50803  53.2181 295.1791 0002843  36.4857 323.6329 15.08838261 45843
